NORAD_CAT_ID,OBJECT_NAME,OBJECT_TYPE,EPOCH,MEAN_MOTION,ECCENTRICITY,INCLINATION,RA_OF_ASC_NODE,ARG_OF_PERICENTER,MEAN_ANOMALY,BSTAR,MEAN_MOTION_DOT,MEAN_MOTION_DDOT,TLE_LINE0,TLE_LINE1,TLE_LINE2,SEMIMAJOR_AXIS,PERIOD,APOGEE,PERIGEE,DECAYED
54183.0,STARLINK-5239,PAYLOAD,2023-01-10 19:10:55,15.08846479,0.0001207,53.2156,143.8296,80.1921,279.9207,3.907e-05,3.34e-06,0.0,0 STARLINK-5239,1 54183U 22141AC  23010.79924849  .00000334  00000-0  39070-4 0  9992,2 54183  53.2156 143.8296 0001207  80.1921 279.9207 15.08846479 11896,6917.861,95.437,540.561,538.891,0.0
54183.0,STARLINK-5239,PAYLOAD,2023-01-11 12:40:10,15.08824972,9.09e-05,53.2157,140.5581,111.3627,248.7463,0.0001626,2.3e-05,0.0,0 STARLINK-5239,1 54183U 22141AC  23011.52790212  .00002300  00000-0  16260-3 0  9999,2 54183  53.2157 140.5581 0000909 111.3627 248.7463 15.08824972 11775,6917.926,95.439,540.42,539.1619999999998,0.0
54183.0,STARLINK-5239,PAYLOAD,2023-01-12 01:23:15,15.08841829,9.81e-05,53.2143,138.1827,90.2492,269.8613,0.00011876,1.603e-05,0.0,0 STARLINK-5239,1 54183U 22141AC  23012.05781771  .00001603  00000-0  11876-3 0  9991,2 54183  53.2143 138.1827 0000981  90.2492 269.8613 15.08841829 12087,6917.875,95.437,540.418,539.061,0.0
54183.0,STARLINK-5239,PAYLOAD,2023-01-12 10:55:34,15.0883393,0.0001116,53.2162,136.3949,77.6176,282.4941,4.4853e-05,4.26e-06,0.0,0 STARLINK-5239,1 54183U 22141AC  23012.45526566  .00000426  00000-0  44853-4 0  9998,2 54183  53.2162 136.3949 0001116  77.6176 282.4941 15.08833930 12148,6917.899,95.438,540.536,538.992,0.0
54183.0,STARLINK-5239,PAYLOAD,2023-01-13 12:21:45,15.08837424,0.0001065999999999,53.2165,131.6369,75.5197,284.5913,-9.1707e-06,-4.34e-06,0.0,0 STARLINK-5239,1 54183U 22141AC  23013.51510639 -.00000434  00000-0 -91707-5 0  9992,2 54183  53.2165 131.6369 0001066  75.5197 284.5913 15.08837424 12301,6917.888000000001,95.438,540.491,539.016,0.0
54183.0,STARLINK-5239,PAYLOAD,2023-01-13 13:57:08,15.08837975,0.0001007,53.2158,131.3407,74.8425,285.2678,-9.1681e-06,-4.34e-06,0.0,0 STARLINK-5239,1 54183U 22141AC  23013.58134561 -.00000434  00000-0 -91681-5 0  9996,2 54183  53.2158 131.3407 0001007  74.8425 285.2678 15.08837975 12086,6917.887,95.438,540.448,539.055,0.0
54183.0,STARLINK-5239,PAYLOAD,2023-01-14 13:47:55,15.0884068,0.0001389,53.2158,126.8789,72.9832,287.1313,7.8755e-05,9.66e-06,0.0,0 STARLINK-5239,1 54183U 22141AC  23014.57494285  .00000966  00000-0  78755-4 0  9992,2 54183  53.2158 126.8789 0001389  72.9832 287.1313 15.08840680 12468,6917.878000000001,95.438,540.7040000000001,538.7819999999999,0.0
54183.0,STARLINK-5239,PAYLOAD,2023-01-15 07:17:10,15.08832749,0.0001689,53.2156,123.6089,74.7302,285.3877,5.2262e-05,5.44e-06,0.0,0 STARLINK-5239,1 54183U 22141AC  23015.30358914  .00000544  00000-0  52262-4 0  9999,2 54183  53.2156 123.6089 0001689  74.7302 285.3877 15.08832749 12573,6917.903,95.438,540.936,538.599,0.0
54183.0,STARLINK-5239,PAYLOAD,2023-01-15 13:38:42,15.08839224,0.0001276,53.2157,122.4198,94.0042,266.1096,3.9845e-05,3.46e-06,0.0,0 STARLINK-5239,1 54183U 22141AC  23015.56854459  .00000346  00000-0  39845-4 0  9994,2 54183  53.2157 122.4198 0001276  94.0042 266.1096 15.08839224 12384,6917.883000000001,95.438,540.63,538.865,0.0
54183.0,STARLINK-5239,PAYLOAD,2023-01-15 16:49:28,15.08845322,0.0001233,53.2164,121.8213,101.2905,258.8226,8.4399e-05,1.056e-05,0.0,0 STARLINK-5239,1 54183U 22141AC  23015.70101857  .00001056  00000-0  84399-4 0  9990,2 54183  53.2164 121.8213 0001233 101.2905 258.8226 15.08845322 12632,6917.8640000000005,95.437,540.582,538.876,0.0
54183.0,STARLINK-5239,PAYLOAD,2023-01-16 13:29:28,15.08850876,0.0001255,53.2154,117.9595,68.1012,292.0114,0.0001242,1.6899999999999997e-05,0.0,0 STARLINK-5239,1 54183U 22141AC  23016.56213569  .00001690  00000-0  12420-3 0  9998,2 54183  53.2154 117.9595 0001255  68.1012 292.0114 15.08850876 12539,6917.847,95.437,540.58,538.844,0.0
54183.0,STARLINK-5239,PAYLOAD,2023-01-16 23:01:48,15.08829569,0.0001609,53.2163,116.1743,82.9428,277.1748,5.2717e-06,-2.04e-06,0.0,0 STARLINK-5239,1 54183U 22141AC  23016.95959373 -.00000204  00000-0  52717-5 0  9997,2 54183  53.2163 116.1743 0001609  82.9428 277.1748 15.08829569 12827,6917.911999999999,95.438,540.89,538.664,0.0
54183.0,STARLINK-5239,PAYLOAD,2023-01-17 14:55:42,15.08814354,0.0001421,53.2162,113.204,68.9591,291.1553,-0.00012172,-2.223e-05,0.0,0 STARLINK-5239,1 54183U 22141AC  23017.62201519 -.00002223  00000-0 -12172-3 0  9997,2 54183  53.2162 113.2040 0001421  68.9591 291.1553 15.08814354 12928,6917.959,95.439,540.807,538.841,0.0
54183.0,STARLINK-5239,PAYLOAD,2023-01-18 10:00:17,15.08843317,0.0001252999999999,53.2151,109.6298,122.894,237.2173,0.00019266,2.78e-05,0.0,0 STARLINK-5239,1 54183U 22141AC  23018.41686986  .00002780  00000-0  19266-3 0  9997,2 54183  53.2151 109.6298 0001253 122.8940 237.2173 15.08843317 13045,6917.87,95.437,540.602,538.868,0.0
54183.0,STARLINK-5239,PAYLOAD,2023-01-18 13:11:02,15.08864854,0.0001186,53.2155,109.0384,87.8589,272.2539,0.00024007,3.537e-05,0.0,0 STARLINK-5239,1 54183U 22141AC  23018.54933610  .00003537  00000-0  24007-3 0  9990,2 54183  53.2155 109.0384 0001186  87.8589 272.2539 15.08864854 12833,6917.804,95.436,540.49,538.849,0.0
54183.0,STARLINK-5239,PAYLOAD,2023-01-18 22:43:21,15.0886515,6.52e-05,53.2159,107.2531,52.2277,307.8774,0.00013555,1.872e-05,0.0,0 STARLINK-5239,1 54183U 22141AC  23018.94677449  .00001872  00000-0  13555-3 0  9995,2 54183  53.2159 107.2531 0000652  52.2277 307.8774 15.08865150 13127,6917.804,95.436,540.12,539.217,0.0
54183.0,STARLINK-5239,PAYLOAD,2023-01-19 09:51:06,15.0881397,8.909999999999998e-05,53.2168,105.1735,82.3026,277.8067,9.3675e-05,1.202e-05,0.0,0 STARLINK-5239,1 54183U 22141AC  23019.41049536  .00001202  00000-0  93675-4 0  9997,2 54183  53.2168 105.1735 0000891  82.3026 277.8067 15.08813970 12966,6917.96,95.439,540.441,539.2090000000001,0.0
54183.0,STARLINK-5239,PAYLOAD,2023-01-19 14:37:15,15.0884231,0.0001099,53.216,104.2796,86.6496,273.4622,4.6307e-05,4.49e-06,0.0,0 STARLINK-5239,1 54183U 22141AC  23019.60920140  .00000449  00000-0  46307-4 0  9999,2 54183  53.2160 104.2796 0001099  86.6496 273.4622 15.08842310 13223,6917.8730000000005,95.437,540.499,538.9780000000001,0.0
54183.0,STARLINK-5239,PAYLOAD,2023-01-20 11:17:14,15.08866738,0.0001145,53.2156,100.4137,72.2695,287.8422,-9.5883e-06,-4.41e-06,0.0,0 STARLINK-5239,1 54183U 22141AC  23020.47030598 -.00000441  00000-0 -95883-5 0  9993,2 54183  53.2156 100.4137 0001145  72.2695 287.8422 15.08866738 13350,6917.799,95.436,540.456,538.872,0.0
54183.0,STARLINK-5239,PAYLOAD,2023-01-20 14:27:59,15.08876876,0.0001088,53.2163,99.8195,77.9288,282.1826,7.7187e-05,9.42e-06,0.0,0 STARLINK-5239,1 54183U 22141AC  23020.60277494  .00000942  00000-0  77187-4 0  9996,2 54183  53.2163  99.8195 0001088  77.9288 282.1826 15.08876876 13371,6917.768,95.435,540.385,538.88,0.0
54183.0,STARLINK-5239,PAYLOAD,2023-01-20 22:24:56,15.08849422,0.0001124,53.2164,98.3325,66.5702,293.5408,-2.2219e-05,-6.42e-06,0.0,0 STARLINK-5239,1 54183U 22141AC  23020.93399152 -.00000642  00000-0 -22219-4 0  9993,2 54183  53.2164  98.3325 0001124  66.5702 293.5408 15.08849422 13422,6917.852,95.437,540.494,538.939,0.0
54183.0,STARLINK-5239,PAYLOAD,2023-01-21 11:08:02,15.08839782,0.0001099,53.2142,95.955,72.6579,287.4533,0.00013046,1.789e-05,0.0,0 STARLINK-5239,1 54183U 22141AC  23021.46391673  .00001789  00000-0  13046-3 0  9990,2 54183  53.2142  95.9550 0001099  72.6579 287.4533 15.08839782 13500,6917.880999999999,95.438,540.506,538.986,0.0
54183.0,STARLINK-5239,PAYLOAD,2023-01-21 12:43:24,15.08849725,0.0001274999999999,53.2168,95.6546,79.0847,281.0288,0.0001816,2.604e-05,0.0,0 STARLINK-5239,1 54183U 22141AC  23021.53015035  .00002604  00000-0  18160-3 0  9992,2 54183  53.2168  95.6546 0001275  79.0847 281.0288 15.08849725 13511,6917.851,95.437,540.5980000000001,538.8340000000001,0.0
54183.0,STARLINK-5239,PAYLOAD,2023-01-22 10:58:48,15.08849853,0.000117,53.2155,91.4941,86.07700000000001,274.0356,6.6671e-05,7.74e-06,0.0,0 STARLINK-5239,1 54183U 22141AC  23022.45750873  .00000774  00000-0  66671-4 0  9997,2 54183  53.2155  91.4941 0001170  86.0770 274.0356 15.08849853 13652,6917.85,95.437,540.525,538.906,0.0
54183.0,STARLINK-5239,PAYLOAD,2023-01-23 02:52:40,15.08839564,0.0001744,53.2128,88.5205,91.731,268.3882,7.105e-05,8.43e-06,0.0,0 STARLINK-5239,1 54183U 22141AC  23023.11991418  .00000843  00000-0  71050-4 0  9997,2 54183  53.2128  88.5205 0001744  91.7310 268.3882 15.08839564 13751,6917.882,95.438,540.953,538.54,0.0
54183.0,STARLINK-5239,PAYLOAD,2023-01-24 04:18:50,15.08837815,0.000136,53.2157,83.7623,113.3292,246.7843,1.2737e-05,-8.5e-07,0.0,0 STARLINK-5239,1 54183U 22141AC  23024.17975664 -.00000085  00000-0  12737-4 0  9995,2 54183  53.2157  83.7623 0001360 113.3292 246.7843 15.08837815 13910,6917.887,95.438,540.693,538.811,0.0
54183.0,STARLINK-5239,PAYLOAD,2023-01-24 10:40:23,15.08845309,0.0001317,53.2153,82.5719,108.2796,251.8339,0.00012831,1.755e-05,0.0,0 STARLINK-5239,1 54183U 22141AC  23024.44471341  .00001755  00000-0  12831-3 0  9996,2 54183  53.2153  82.5719 0001317 108.2796 251.8339 15.08845309 13951,6917.8640000000005,95.437,540.64,538.818,0.0
54183.0,STARLINK-5239,PAYLOAD,2023-01-25 04:09:38,15.08829055,0.0001281,53.2154,79.3016,119.9147,240.1972,6.3861e-05,7.28e-06,0.0,0 STARLINK-5239,1 54183U 22141AC  23025.17336711  .00000728  00000-0  63861-4 0  9997,2 54183  53.2154  79.3016 0001281 119.9147 240.1972 15.08829055 14062,6917.914000000001,95.438,540.665,538.893,0.0
54183.0,STARLINK-5239,PAYLOAD,2023-01-25 10:31:11,15.08836355,9.81e-05,53.2147,78.1115,103.4093,256.7009,8.359200000000001e-05,1.043e-05,0.0,0 STARLINK-5239,1 54183U 22141AC  23025.43832334  .00001043  00000-0  83592-4 0  9992,2 54183  53.2147  78.1115 0000981 103.4093 256.7009 15.08836355 14105,6917.892,95.438,540.435,539.078,0.0
